ONEWEB-0094             
1 45450U 20020AC  25290.89060877 -.00000065  00000+0 -20100-3 0  9993
2 45450  87.9111  54.0141 0001658 101.1040 259.0278 13.17647022274402
ONEWEB-0087             
1 45451U 20020AD  25290.94161232 -.00000165  00000+0 -50123-3 0  9996
2 45451  87.8836  69.2515 0001339 102.8823 257.2454 13.11414890270830
ONEWEB-0082             
1 45452U 20020AE  25290.93836280 -.00000107  00000+0 -33665-3 0  9996
2 45452  87.8839  69.2778 0001417 101.0996 259.0291 13.11414310270920
ONEWEB-0050             
1 45453U 20020AF  25290.93902629 -.00003504  00000+0 -37503-3 0  9997
2 45453  88.7343 266.3900 0005732 103.9687 256.2180 14.89063830304310
ONEWEB-0034             
1 45454U 20020AG  25290.88325297 -.00000468  00000+0 -13561-2 0  9995
2 45454  87.8829  69.3077 0001580  97.3963 262.7345 13.11418231270833
ONEWEB-0060             
1 45455U 20020AH  25290.93073503  .00000230  00000+0  61455-3 0  9993
2 45455  87.8818  69.3214 0001060 145.4547 214.6650 13.11415415270792
ONEWEB-0086             
1 45456U 20020AJ  25290.90954916  .00000501  00000+0  13772-2 0  9996
2 45456  87.8828  69.2992 0001675 123.7129 236.4159 13.11418184270852
ONEWEB-0088             
1 45457U 20020AK  25290.88750794 -.00000301  00000+0 -88377-3 0  9996
2 45457  87.8839  69.2531 0001476  93.3010 266.8287 13.11417278270788
